STARLINK-34645          
1 64766U 25147M   26201.71480130  .00010628  00000+0  37035-3 0  9990
2 64766  53.1617 345.2070 0001028 107.1224 252.9890 15.30209094 59117
STARLINK-34639          
1 64767U 25147N   26201.40671035  .00017357  00000+0  52362-3 0  9999
2 64767  53.1611 343.9993 0001218  83.3498 276.7643 15.34401484 59054
STARLINK-34609          
1 64768U 25147P   26200.76837701  .00009004  00000+0  27730-3 0  9993
2 64768  53.1608 338.6097 0001401  64.6886 295.4261 15.34399183 59128
STARLINK-34246          
1 64769U 25147Q   26201.39408367  .00013096  00000+0  39797-3 0  9998
2 64769  53.1588 343.9273 0001552  94.0062 266.1118 15.34405676 59100
STARLINK-34618          
1 64770U 25147R   26201.70082334  .00015340  00000+0  46413-3 0  9994
2 64770  53.1610 342.2850 0001192 148.0368 212.0707 15.34406090 59082
STARLINK-34541          
1 64771U 25147S   26201.71765841  .00009841  00000+0  30196-3 0  9997
2 64771  53.1616 342.3920 0000929  93.5278 266.5831 15.34404344 59081
STARLINK-34652          
1 64772U 25147T   26201.65883666  .00014390  00000+0  43602-3 0  9998
2 64772  53.1627 342.7338 0000935  70.1441 289.9663 15.34414396 59148
STARLINK-34612          
1 64773U 25147U   26201.71134721  .00012377  00000+0  37684-3 0  9993
2 64773  53.1604 342.3522 0001038  88.1784 271.9337 15.34399835 59159
STARLINK-34621          
1 64774U 25147V   26201.70846847  .00008072  00000+0  28428-3 0  9995
2 64774  53.1602 345.1670 0001220 107.4402 252.6733 15.30211413 59043
STARLINK-34657          
1 64775U 25147W   26201.40881402  .00013610  00000+0  41323-3 0  9992
2 64775  53.1606 344.0147 0001058  75.2260 284.8860 15.34398468 59103
STARLINK-34637          
1 64776U 25147X   26201.68198017  .00020628  00000+0  62005-3 0  9993
2 64776  53.1601 342.8759 0000345  15.5744 344.5269 15.34396021 59072
STARLINK-34547          
1 64777U 25147Y   26201.90254558  .00017269  00000+0  52096-3 0  9998
2 64777  53.1597 341.4093 0001054 151.5833 208.5227 15.34406514 59129
STARLINK-34537          
1 64778U 25147Z   26201.30550870  .00006787  00000+0  24098-3 0  9993
2 64778  53.1563 323.8838 0001490  89.5846 270.5325 15.30210506 59401
STARLINK-34585          
1 64779U 25147AA  26201.67987502  .00014487  00000+0  43896-3 0  9993
2 64779  53.1591 342.8621 0001063  89.9606 270.1518 15.34407428 59098
STARLINK-34491          
1 64780U 25147AB  26201.70503333  .00009939  00000+0  30485-3 0  9991
2 64780  53.1603 342.3068 0001122  98.5599 261.5531 15.34404999 59153
STARLINK-34582          
1 64781U 25147AC  26200.78681691  .00025067  00000+0  75021-3 0  9998
2 64781  53.1607 346.5278 0000503 107.9860 252.1198 15.34414167 58944
STARLINK-34482          
1 64782U 25147AD  26201.41301996  .00011781  00000+0  35919-3 0  9997
2 64782  53.1595 344.0369 0000896  82.9436 277.1669 15.34404125 59147
DROR 1                  
1 64784U 25148A   26201.83140766 -.00000035  00000+0  00000+0 0  9992
2 64784   0.0265 286.2686 0001911 121.2584 186.3754  1.00270588  3634
STARLINK-34629          
1 64790U 25150A   26201.90256741 -.00002928  00000+0 -23769-3 0  9996
2 64790  70.0014 158.4683 0003310 259.5978 100.4808 14.98334924 56477
STARLINK-34697          
1 64791U 25150B   26201.90659782  .00003643  00000+0  31280-3 0  9999
2 64791  70.0011 158.4768 0003226 259.2036 100.8760 14.98344078 56479
STARLINK-34632          
1 64792U 25150C   26201.93180059  .00004655  00000+0  39772-3 0  9997
2 64792  70.0012 158.4460 0002962 267.4733  92.6087 14.98326676 56475
STARLINK-34693          
1 64793U 25150D   26201.88590327  .00003593  00000+0  30867-3 0  9991
2 64793  70.0003 158.8019 0003784 260.5068  99.5663 14.98337594 56464
STARLINK-34666          
1 64794U 25150E   26201.95251597  .00004009  00000+0  34355-3 0  9992
2 64794  70.0008 158.6399 0003223 261.3683  98.7111 14.98333228 56479
STARLINK-34567          
1 64795U 25150F   26201.89406059  .00002704  00000+0  23432-3 0  9995
2 64795  70.0009 158.4339 0003745 258.4204 101.6534 14.98335988 56476
STARLINK-34646          
1 64796U 25150G   26201.93596701  .00002525  00000+0  21929-3 0  9995
2 64796  70.0009 158.5745 0003320 266.2739  93.8040 14.98339302 57365
STARLINK-34641          
1 64797U 25150H   26201.91493242  .00002798  00000+0  24219-3 0  9997
2 64797  70.0013 158.5052 0002832 268.8139  91.2696 14.98337263 57308
STARLINK-34649          
1 64798U 25150J   26201.93580307  .00002557  00000+0  22197-3 0  9995
2 64798  70.0011 158.5814 0003265 259.5693 100.5098 14.98336619 57366
STARLINK-34662          
1 64799U 25150K   26201.29339892  .00002980  00000+0  25741-3 0  9994
2 64799  70.0009 159.9518 0003429 267.2179  92.8588 14.98333971 56383
STARLINK-34660          
1 64800U 25150L   26201.91075711  .00002670  00000+0  23142-3 0  9992
2 64800  70.0010 158.4928 0003612 259.4342 100.6410 14.98336700 56471
STARLINK-34604          
1 64801U 25150M   26201.32244282  .00002849  00000+0  24644-3 0  9995
2 64801  70.0011 160.0489 0003001 266.5686  93.5130 14.98338851 56384
