OBJECT_NAME,OBJECT_ID,EPOCH,MEAN_MOTION,ECCENTRICITY,INCLINATION,RA_OF_ASC_NODE,ARG_OF_PERICENTER,MEAN_ANOMALY,EPHEMERIS_TYPE,CLASSIFICATION_TYPE,NORAD_CAT_ID,ELEMENT_SET_NO,REV_AT_EPOCH,BSTAR,MEAN_MOTION_DOT,MEAN_MOTION_DDOT
STARLINK-34645,2025-147M,2026-07-20T17:09:18.832320,15.30209094,.00010288,53.1617,345.2070,107.1224,252.9890,0,U,64766,999,5911,.3703467E-3,.10628E-3,0
STARLINK-34639,2025-147N,2026-07-20T09:45:39.774240,15.34401484,.00012184,53.1611,343.9993,83.3498,276.7643,0,U,64767,999,5905,.52362377E-3,.17357E-3,0
STARLINK-34609,2025-147P,2026-07-19T18:26:27.773664,15.34399183,.00014018,53.1608,338.6097,64.6886,295.4261,0,U,64768,999,5912,.27729976E-3,.9004E-4,0
STARLINK-34246,2025-147Q,2026-07-20T09:27:28.829088,15.34405676,.00015528,53.1588,343.9273,94.0062,266.1118,0,U,64769,999,5910,.39796942E-3,.13096E-3,0
STARLINK-34618,2025-147R,2026-07-20T16:49:11.136576,15.34406090,.00011928,53.1610,342.2850,148.0368,212.0707,0,U,64770,999,5908,.46412694E-3,.1534E-3,0
STARLINK-34541,2025-147S,2026-07-20T17:13:25.686624,15.34404344,.00009295,53.1616,342.3920,93.5278,266.5831,0,U,64771,999,5908,.30196193E-3,.9841E-4,0
STARLINK-34652,2025-147T,2026-07-20T15:48:43.487424,15.34414396,.00009359,53.1627,342.7338,70.1441,289.9663,0,U,64772,999,5914,.43601945E-3,.1439E-3,0
STARLINK-34612,2025-147U,2026-07-20T17:04:20.398944,15.34399835,.00010384,53.1604,342.3522,88.1784,271.9337,0,U,64773,999,5915,.37683979E-3,.12377E-3,0
STARLINK-34621,2025-147V,2026-07-20T17:00:11.675808,15.30211413,.00012208,53.1602,345.1670,107.4402,252.6733,0,U,64774,999,5904,.28427782E-3,.8072E-4,0
STARLINK-34657,2025-147W,2026-07-20T09:48:41.531328,15.34398468,.00010585,53.1606,344.0147,75.2260,284.8860,0,U,64775,999,5910,.41323037E-3,.1361E-3,0
STARLINK-34637,2025-147X,2026-07-20T16:22:03.086688,15.34396021,.00003458,53.1601,342.8759,15.5744,344.5269,0,U,64776,999,5907,.62004957E-3,.20628E-3,0
STARLINK-34547,2025-147Y,2026-07-20T21:39:39.938112,15.34406514,.00010544,53.1597,341.4093,151.5833,208.5227,0,U,64777,999,5912,.520957E-3,.17269E-3,0
STARLINK-34537,2025-147Z,2026-07-20T07:19:55.951680,15.30210506,.00014905,53.1563,323.8838,89.5846,270.5325,0,U,64778,999,5940,.2409779E-3,.6787E-4,0
STARLINK-34585,2025-147AA,2026-07-20T16:19:01.201728,15.34407428,.00010632,53.1591,342.8621,89.9606,270.1518,0,U,64779,999,5909,.43895715E-3,.14487E-3,0
STARLINK-34491,2025-147AB,2026-07-20T16:55:14.879712,15.34404999,.00011223,53.1603,342.3068,98.5599,261.5531,0,U,64780,999,5915,.30485285E-3,.9939E-4,0
STARLINK-34582,2025-147AC,2026-07-19T18:53:00.981024,15.34414167,.00005032,53.1607,346.5278,107.9860,252.1198,0,U,64781,999,5894,.75021331E-3,.25067E-3,0
STARLINK-34482,2025-147AD,2026-07-20T09:54:44.924544,15.34404125,.00008964,53.1595,344.0369,82.9436,277.1669,0,U,64782,999,5914,.35919401E-3,.11781E-3,0
DROR 1,2025-148A,2026-07-20T19:57:13.621824,1.00270588,.00019112,0.0265,286.2686,121.2584,186.3754,0,U,64784,999,363,0,-.35E-6,0
STARLINK-34629,2025-150A,2026-07-20T21:39:41.824224,14.98334924,.00033103,70.0014,158.4683,259.5978,100.4808,0,U,64790,999,5647,-.23768636E-3,-.2928E-4,0
STARLINK-34697,2025-150B,2026-07-20T21:45:30.051648,14.98344078,.0003226,70.0011,158.4768,259.2036,100.8760,0,U,64791,999,5647,.31280316E-3,.3643E-4,0
STARLINK-34632,2025-150C,2026-07-20T22:21:47.570976,14.98326676,.0002962,70.0012,158.4460,267.4733,92.6087,0,U,64792,999,5647,.39771635E-3,.4655E-4,0
STARLINK-34693,2025-150D,2026-07-20T21:15:42.042528,14.98337594,.00037845,70.0003,158.8019,260.5068,99.5663,0,U,64793,999,5646,.30866732E-3,.3593E-4,0
STARLINK-34666,2025-150E,2026-07-20T22:51:37.379808,14.98333228,.00032238,70.0008,158.6399,261.3683,98.7111,0,U,64794,999,5647,.34355417E-3,.4009E-4,0
STARLINK-34567,2025-150F,2026-07-20T21:27:26.834976,14.98335988,.00037455,70.0009,158.4339,258.4204,101.6534,0,U,64795,999,5647,.23432023E-3,.2704E-4,0
STARLINK-34646,2025-150G,2026-07-20T22:27:47.549664,14.98339302,.00033207,70.0009,158.5745,266.2739,93.8040,0,U,64796,999,5736,.21929183E-3,.2525E-4,0
STARLINK-34641,2025-150H,2026-07-20T21:57:30.161088,14.98337263,.00028328,70.0013,158.5052,268.8139,91.2696,0,U,64797,999,5730,.2421887E-3,.2798E-4,0
STARLINK-34649,2025-150J,2026-07-20T22:27:33.385248,14.98336619,.00032658,70.0011,158.5814,259.5693,100.5098,0,U,64798,999,5736,.22197433E-3,.2557E-4,0
STARLINK-34662,2025-150K,2026-07-20T07:02:29.666688,14.98333971,.00034296,70.0009,159.9518,267.2179,92.8588,0,U,64799,999,5638,.25741427E-3,.298E-4,0
STARLINK-34660,2025-150L,2026-07-20T21:51:29.414304,14.98336700,.00036126,70.0010,158.4928,259.4342,100.6410,0,U,64800,999,5647,.23142031E-3,.267E-4,0
STARLINK-34604,2025-150M,2026-07-20T07:44:19.059648,14.98338851,.00030011,70.0011,160.0489,266.5686,93.5130,0,U,64801,999,5638,.24643862E-3,.2849E-4,0
